1 23051U 94022A   03327.47870620 -.00000044  00000-0  00000-0 0   605
2 23051   0.9877  94.9904 0003408  18.8582 286.2146  1.00277246 42594
1 23051U 94022A   03328.40918872 -.00000047  00000-0  00000+0 0   614
2 23051   0.9901  94.9559 0004476  16.2122 264.8084  1.00277217 42609
1 23051U 94022A   03328.40918872 -.00000047  00000-0  00000-0 0   626
2 23051   0.9901  94.9559 0004476  16.2122 264.8084  1.00277217 42609
1 23051U 94022A   03328.50795737 -.00000047  00000-0  00000+0 0   630
2 23051   0.9904  94.9511 0004719  16.6460 300.0356  1.00277190 42604
1 23051U 94022A   03328.50795737 -.00000047  00000-0  00000-0 0   631
2 23051   0.9904  94.9511 0004719  16.6460 300.0356  1.00277190 42604
1 23051U 94022A   03328.50795737 -.00000047  00000-0  00000-0 0   642
2 23051   0.9904  94.9511 0004719  16.6460 300.0356  1.00277190 42604
1 23051U 94022A   03328.50795737 -.00000047  00000-0  00000-0 0   653
2 23051   0.9904  94.9511 0004719  16.6460 300.0356  1.00277190 42604
1 23051U 94022A   03328.50795737 -.00000047  00000-0  00000-0 0   664
2 23051   0.9904  94.9511 0004719  16.6460 300.0356  1.00277190 42604
1 23051U 94022A   03328.50795737 -.00000047  00000-0  00000-0 0   697
2 23051   0.9904  94.9511 0004719  16.6460 300.0356  1.00277190 42604
1 23051U 94022A   03328.50795737 -.00000047  00000-0  00000-0 0   709
2 23051   0.9904  94.9511 0004719  16.6460 300.0356  1.00277190 42604
1 23051U 94022A   03328.50795737 -.00000047  00000-0  00000-0 0   710
2 23051   0.9904  94.9511 0004719  16.6460 300.0356  1.00277190 42604
1 23051U 94022A   03338.33144887 -.00000042  00000-0  00000+0 0   732
2 23051   1.0154  94.8001 0003895   9.9402 253.2160  1.00277668 42692
1 23051U 94022A   03338.33144887 -.00000043  00000-0  00000-0 0   734
2 23051   1.0154  94.8001 0003895   9.9402 253.2160  1.00277668 42692
1 23051U 94022A   03338.33144887 -.00000043  00000-0  00000-0 0   745
2 23051   1.0154  94.8001 0003895   9.9402 253.2160  1.00277668 42692
1 23051U 94022A   03339.68960030 -.00000038  00000-0  00000+0 0   754
2 23051   1.0178  94.8733 0000880 341.6652  51.6767  1.00277370 42710
1 23051U 94022A   03340.55054399 -.00000036  00000-0  00000-0 0   764
2 23051   1.0211  94.8398 0000749 344.6311 359.5559  1.00277601 42710
1 23051U 94022A   03341.52371000 -.00000034  00000-0  00000-0 0   806
2 23051   1.0236  94.8312 0000783 341.8530 353.6634  1.00277686 42726
1 23051U 94022A   03342.26182503 -.00000033  00000-0  00000+0 0   804
2 23051   1.0255  94.8183 0000764 342.8303 259.1643  1.00277741 42734
1 23051U 94022A   03342.26182503 -.00000033  00000-0  00000-0 0   816
2 23051   1.0255  94.8183 0000764 342.8303 259.1643  1.00277741 42734
1 23051U 94022A   03342.64917096 -.00000033  00000-0  00000-0 0   822
2 23051   1.0264  94.8072 0000886 338.2555  43.5845  1.00277725 42746
1 23051U 94022A   03342.64917096 -.00000033  00000-0  00000-0 0   833
2 23051   1.0264  94.8072 0000886 338.2555  43.5845  1.00277725 42746
1 23051U 94022A   03342.64917096 -.00000033  00000-0  00000-0 0   844
2 23051   1.0264  94.8072 0000886 338.2555  43.5845  1.00277725 42746
1 23051U 94022A   03346.31577913 -.00000034  00000-0  00000+0 0   853
2 23051   1.0354  94.7880 0000914 334.6034 290.9315  1.00278020 42778
1 23051U 94022A   03346.31577913 -.00000034  00000-0  00000-0 0   865
2 23051   1.0354  94.7880 0000914 334.6034 290.9315  1.00278020 42778
1 23051U 94022A   03348.49181119 -.00000035  00000-0  00000-0 0   899
2 23051   1.0412  94.7637 0000832 335.1923 355.9436  1.00278438 42796
1 23051U 94022A   03348.49181119 -.00000035  00000-0  00000-0 0   901
2 23051   1.0412  94.7637 0000832 335.1923 355.9436  1.00278438 42796
1 23051U 94022A   03350.38289755 -.00000034  00000-0  00000-0 0   928
2 23051   1.0462  94.7498 0000860 333.6185 320.2347  1.00278645 42819
1 23051U 94022A   03351.46992931 -.00000034  00000-0  00000+0 0   935
2 23051   1.0486  94.6879 0001019 328.1993 358.1380  1.00278469 42822
1 23051U 94022A   03351.46992931 -.00000034  00000-0  00000-0 0   947
2 23051   1.0486  94.6879 0001019 328.1993 358.1380  1.00278469 42822
1 23051U 94022A   03351.56041825  .00000000  00000-0  10000-3 0   963
2 23051   1.0487  94.6983 0001449   8.0250 350.9861  1.00276460 42829
1 23051U 94022A   03352.53293873 -.00000034  00000-0  00000-0 0   978
2 23051   1.0515  94.6894 0001084 326.2899  23.8072  1.00278633 42836
1 23051U 94022A   03352.53293873 -.00000034  00000-0  00000-0 0   989
2 23051   1.0515  94.6894 0001084 326.2899  23.8072  1.00278633 42836
1 23051U 94022A   03353.47382905 -.00000034  00000-0  00000+0 0   998
2 23051   1.0539  94.6872 0001053 327.6541   2.1165  1.00278708 42840
1 23051U 94022A   03354.48932050 -.00000036  00000-0  00000-0 0  1008
2 23051   1.0566  94.6779 0001120 327.1221   9.2597  1.00278770 42858
1 23051U 94022A   03354.48932050 -.00000036  00000-0  00000-0 0  1020
2 23051   1.0566  94.6779 0001120 327.1221   9.2597  1.00278770 42858
1 23051U 94022A   03357.59465001 -.00000046  00000-0  00000-0 0  1045
2 23051   1.0648  94.6365 0001116 326.7349  50.7433  1.00278953 42898
1 23051U 94022A   03357.59465001 -.00000046  00000-0  00000-0 0  1056
2 23051   1.0648  94.6365 0001116 326.7349  50.7433  1.00278953 42898
1 23051U 94022A   03357.59465001 -.00000046  00000-0  00000-0 0  1067
2 23051   1.0648  94.6365 0001116 326.7349  50.7433  1.00278953 42898
1 23051U 94022A   03360.60998859 -.00000052  00000-0  00000+0 0  1072
2 23051   1.0737  94.5709 0001486 303.5510  82.5475  1.00278873 42925
1 23051U 94022A   03360.60998859 -.00000052  00000-0  00000-0 0  1084
2 23051   1.0737  94.5709 0001486 303.5510  82.5475  1.00278873 42925
1 23051U 94022A   03361.41251772 -.00000052  00000-0  00000-0 0  1091
2 23051   1.0758  94.5621 0001491 305.2385  10.5908  1.00278921 42922
1 23051U 94022A   03361.61673428 -.00000052  00000-0  00000+0 0  1100
2 23051   1.0764  94.5595 0001493 303.7134  85.8417  1.00278917 42932
1 23051U 94022A   03361.61673428 -.00000052  00000-0  00000-0 0  1112
2 23051   1.0764  94.5595 0001493 303.7134  85.8417  1.00278917 42932
1 23051U 94022A   03361.61673428 -.00000052  00000-0  00000-0 0  1134
2 23051   1.0764  94.5595 0001493 303.7134  85.8417  1.00278917 42932
1 23051U 94022A   03361.61673428 -.00000052  00000-0  00000-0 0  1145
2 23051   1.0764  94.5595 0001493 303.7134  85.8417  1.00278917 42932
1 23051U 94022A   03361.61673428 -.00000052  00000-0  00000-0 0  1156
2 23051   1.0764  94.5595 0001493 303.7134  85.8417  1.00278917 42932
1 23051U 94022A   04004.47414566 -.00000030  00000-0  00000-0 0  1180
2 23051   1.0958  94.4560 0001516 302.8796  43.4048  1.00279540 43000
1 23051U 94022A   04004.47414566 -.00000030  00000-0  00000-0 0  1191
2 23051   1.0958  94.4560 0001516 302.8796  43.4048  1.00279540 43000
1 23051U 94022A   04006.26893691 -.00000030  00000-0  00000+0 0  1201
2 23051   1.1005  94.4291 0001345 305.6536 328.6036  1.00279664 43022
1 23051U 94022A   04006.26893691 -.00000030  00000-0  00000-0 0  1213
2 23051   1.1005  94.4291 0001345 305.6536 328.6036  1.00279664 43022
1 23051U 94022A   04007.50605281 -.00000031  00000-0  00000+0 0  1239
2 23051   1.1035  94.4226 0001979 287.1931  73.6920  1.00279937 43043
1 23051U 94022A   04007.50605281 -.00000031  00000-0  00000-0 0  1230
2 23051   1.1035  94.4226 0001979 287.1931  73.6920  1.00279937 43043
1 23051U 94022A   04008.41306041 -.00000032  00000-0  00000+0 0  1244
2 23051   1.1058  94.4092 0002016 286.1830  42.1593  1.00280022 43043
1 23051U 94022A   04008.41306041 -.00000032  00000-0  00000-0 0  1256
2 23051   1.1058  94.4092 0002016 286.1830  42.1593  1.00280022 43043
1 23051U 94022A   04008.49814635 -.00000032  00000-0  00000+0 0  1267
2 23051   1.1060  94.4090 0002071 285.6975  73.3634  1.00280050 43053
1 23051U 94022A   04009.45713785 -.00000032  00000-0  00000-0 0  1270
2 23051   1.1084  94.3958 0002002 284.9931  60.2945  1.00280162 43053
1 23051U 94022A   04010.48943999 -.00000033  00000-0  00000-0 0  1278
2 23051   1.1110  94.3827 0001991 284.7482  73.2319  1.00280268 43060
1 23051U 94022A   04011.33715635 -.00000033  00000-0  00000-0 0  1288
2 23051   1.1131  94.3713 0001980 284.4927  19.5387  1.00280342 43078
1 23051U 94022A   04011.59068020 -.00000033  00000-0  00000+0 0  1295
2 23051   1.1137  94.3668 0001970 287.7682 107.7962  1.00280381 43089
1 23051U 94022A   04012.44450932 -.00000032  00000-0  00000-0 0  1309
2 23051   1.1158  94.3548 0002004 285.4296  58.3939  1.00280470 43088
1 23051U 94022A   04013.50248589 -.00000032  00000-0  00000+0 0  1309
2 23051   1.1185  94.3413 0001869 289.8682  75.9196  1.00280585 43104
1 23051U 94022A   04013.50248589 -.00000032  00000-0  00000-0 0  1311
2 23051   1.1185  94.3413 0001869 289.8682  75.9196  1.00280585 43104
1 23051U 94022A   04013.64722472 -.00000032  00000-0  00000+0 0  1324
2 23051   1.1189  94.3365 0001760 296.4766 121.5721  1.00280605 43106
1 23051U 94022A   04013.64722472 -.00000032  00000-0  00000-0 0  1325
2 23051   1.1189  94.3365 0001760 296.4766 121.5721  1.00280605 43106
1 23051U 94022A   04013.64722472 -.00000032  00000-0  00000-0 0  1347
2 23051   1.1189  94.3365 0001760 296.4766 121.5721  1.00280605 43106
1 23051U 94022A   04016.39189782 -.00000033  00000-0  00000-0 0  1355
2 23051   1.1258  94.2987 0001678 297.8335  31.1300  1.00280839 43127
1 23051U 94022A   04016.39189782 -.00000033  00000-0  00000+0 0  1354
2 23051   1.1258  94.2987 0001678 297.8335  31.1300  1.00280839 43127
1 23051U 94022A   04016.42794551 -.00000033  00000-0  00000+0 0  1365
2 23051   1.1258  94.2979 0001664 298.4745  43.5036  1.00280839 43128
1 23051U 94022A   04017.65449714 -.00000036  00000-0  00000-0 0  1374
2 23051   1.1290  94.2783 0001808 296.4571 128.3456  1.00280940 43145
1 23051U 94022A   04018.49029626 -.00000039  00000-0  00000-0 0  1398
2 23051   1.1311  94.2702 0001752 302.0886  64.4619  1.00281012 43154
1 23051U 94022A   04018.60918551 -.00000040  00000-0  00000-0 0  1397
2 23051   1.1315  94.2661 0001757 300.2661 109.2085  1.00281013 43154
